[{"OBJECT_NAME":"ONEWEB-0082","OBJECT_ID":"2020-020AE","EPOCH":"2025-08-28T13:58:47.118720","MEAN_MOTION":13.11417232,"ECCENTRICITY":0.00017202,"INCLINATION":87.8785,"RA_OF_ASC_NODE":79.3363,"ARG_OF_PERICENTER":80.6405,"MEAN_ANOMALY":279.4917,"EPHEMERIS_TYPE":0,"CLASSIFICATION_TYPE":"U","NORAD_CAT_ID":45452,"ELEMENT_SET_NO":999,"REV_AT_EPOCH":26432,"BSTAR":-0.0013555035,"MEAN_MOTION_DOT":-4.68e-6,"MEAN_MOTION_DDOT":0},{"OBJECT_NAME":"ONEWEB-0050","OBJECT_ID":"2020-020AF","EPOCH":"2025-08-28T14:32:19.220928","MEAN_MOTION":14.90998337,"ECCENTRICITY":0.00013574,"INCLINATION":87.9937,"RA_OF_ASC_NODE":276.9545,"ARG_OF_PERICENTER":34.2594,"MEAN_ANOMALY":325.8722,"EPHEMERIS_TYPE":0,"CLASSIFICATION_TYPE":"U","NORAD_CAT_ID":45453,"ELEMENT_SET_NO":999,"REV_AT_EPOCH":29682,"BSTAR":0.00024009437,"MEAN_MOTION_DOT":2.396e-5,"MEAN_MOTION_DDOT":0},{"OBJECT_NAME":"ONEWEB-0034","OBJECT_ID":"2020-020AG","EPOCH":"2025-08-28T14:29:18.099744","MEAN_MOTION":13.11419836,"ECCENTRICITY":0.00017224,"INCLINATION":87.8789,"RA_OF_ASC_NODE":79.3523,"ARG_OF_PERICENTER":85.2644,"MEAN_ANOMALY":274.8681,"EPHEMERIS_TYPE":0,"CLASSIFICATION_TYPE":"U","NORAD_CAT_ID":45454,"ELEMENT_SET_NO":999,"REV_AT_EPOCH":26424,"BSTAR":0.00077336289,"MEAN_MOTION_DOT":2.87e-6,"MEAN_MOTION_DDOT":0},{"OBJECT_NAME":"ONEWEB-0060","OBJECT_ID":"2020-020AH","EPOCH":"2025-08-28T13:47:47.923008","MEAN_MOTION":13.11418858,"ECCENTRICITY":0.00023895,"INCLINATION":87.8772,"RA_OF_ASC_NODE":79.3852,"ARG_OF_PERICENTER":56.6875,"MEAN_ANOMALY":303.4482,"EPHEMERIS_TYPE":0,"CLASSIFICATION_TYPE":"U","NORAD_CAT_ID":45455,"ELEMENT_SET_NO":999,"REV_AT_EPOCH":26419,"BSTAR":-0.0012676417,"MEAN_MOTION_DOT":-4.37e-6,"MEAN_MOTION_DDOT":0},{"OBJECT_NAME":"ONEWEB-0086","OBJECT_ID":"2020-020AJ","EPOCH":"2025-08-28T22:26:37.941504","MEAN_MOTION":13.1141641,"ECCENTRICITY":0.00015019,"INCLINATION":87.8785,"RA_OF_ASC_NODE":79.2834,"ARG_OF_PERICENTER":59.2509,"MEAN_ANOMALY":300.8767,"EPHEMERIS_TYPE":0,"CLASSIFICATION_TYPE":"U","NORAD_CAT_ID":45456,"ELEMENT_SET_NO":999,"REV_AT_EPOCH":26430,"BSTAR":0.001034209,"MEAN_MOTION_DOT":3.79e-6,"MEAN_MOTION_DDOT":0},{"OBJECT_NAME":"ONEWEB-0088","OBJECT_ID":"2020-020AK","EPOCH":"2025-08-28T21:54:52.627968","MEAN_MOTION":13.11418549,"ECCENTRICITY":0.00018834,"INCLINATION":87.879,"RA_OF_ASC_NODE":79.2339,"ARG_OF_PERICENTER":86.472,"MEAN_ANOMALY":273.6623,"EPHEMERIS_TYPE":0,"CLASSIFICATION_TYPE":"U","NORAD_CAT_ID":45457,"ELEMENT_SET_NO":999,"REV_AT_EPOCH":26423,"BSTAR":0.0011656783,"MEAN_MOTION_DOT":4.26e-6,"MEAN_MOTION_DDOT":0},{"OBJECT_NAME":"ONEWEB-0102","OBJECT_ID":"2020-100A","EPOCH":"2025-08-28T22:01:32.588256","MEAN_MOTION":13.1244261,"ECCENTRICITY":0.00015735,"INCLINATION":87.8876,"RA_OF_ASC_NODE":48.7636,"ARG_OF_PERICENTER":94.9104,"MEAN_ANOMALY":265.2204,"EPHEMERIS_TYPE":0,"CLASSIFICATION_TYPE":"U","NORAD_CAT_ID":47258,"ELEMENT_SET_NO":999,"REV_AT_EPOCH":22639,"BSTAR":0.0013212003,"MEAN_MOTION_DOT":4.88e-6,"MEAN_MOTION_DDOT":0},{"OBJECT_NAME":"ONEWEB-0109","OBJECT_ID":"2020-100B","EPOCH":"2025-08-28T22:13:13.303488","MEAN_MOTION":13.12441588,"ECCENTRICITY":0.00016042,"INCLINATION":87.8868,"RA_OF_ASC_NODE":48.731,"ARG_OF_PERICENTER":93.3952,"MEAN_ANOMALY":266.736,"EPHEMERIS_TYPE":0,"CLASSIFICATION_TYPE":"U","NORAD_CAT_ID":47259,"ELEMENT_SET_NO":999,"REV_AT_EPOCH":22622,"BSTAR":0.0010398811,"MEAN_MOTION_DOT":3.87e-6,"MEAN_MOTION_DDOT":0},{"OBJECT_NAME":"ONEWEB-0110","OBJECT_ID":"2020-100C","EPOCH":"2025-08-28T21:00:46.748448","MEAN_MOTION":13.12441208,"ECCENTRICITY":0.00016441,"INCLINATION":87.8874,"RA_OF_ASC_NODE":48.7251,"ARG_OF_PERICENTER":82.5264,"MEAN_ANOMALY":277.6052,"EPHEMERIS_TYPE":0,"CLASSIFICATION_TYPE":"U","NORAD_CAT_ID":47260,"ELEMENT_SET_NO":999,"REV_AT_EPOCH":22638,"BSTAR":-0.0011298753,"MEAN_MOTION_DOT":-3.94e-6,"MEAN_MOTION_DDOT":0},{"OBJECT_NAME":"ONEWEB-0111","OBJECT_ID":"2020-100D","EPOCH":"2025-08-28T21:45:10.888128","MEAN_MOTION":13.12443063,"ECCENTRICITY":0.00016653,"INCLINATION":87.8879,"RA_OF_ASC_NODE":48.7357,"ARG_OF_PERICENTER":92.2215,"MEAN_ANOMALY":267.9104,"EPHEMERIS_TYPE":0,"CLASSIFICATION_TYPE":"U","NORAD_CAT_ID":47261,"ELEMENT_SET_NO":999,"REV_AT_EPOCH":22622,"BSTAR":0.00065528029,"MEAN_MOTION_DOT":2.48e-6,"MEAN_MOTION_DDOT":0},{"OBJECT_NAME":"ONEWEB-0114","OBJECT_ID":"2020-100E","EPOCH":"2025-08-28T22:29:33.521856","MEAN_MOTION":13.12441213,"ECCENTRICITY":0.00015733,"INCLINATION":87.887,"RA_OF_ASC_NODE":48.7239,"ARG_OF_PERICENTER":102.9392,"MEAN_ANOMALY":257.1912,"EPHEMERIS_TYPE":0,"CLASSIFICATION_TYPE":"U","NORAD_CAT_ID":47262,"ELEMENT_SET_NO":999,"REV_AT_EPOCH":22618,"BSTAR":6.3179491e-5,"MEAN_MOTION_DOT":3.5e-7,"MEAN_MOTION_DDOT":0},{"OBJECT_NAME":"ONEWEB-0117","OBJECT_ID":"2020-100F","EPOCH":"2025-08-28T22:17:53.193696","MEAN_MOTION":13.12441724,"ECCENTRICITY":0.0001724,"INCLINATION":87.8879,"RA_OF_ASC_NODE":48.7229,"ARG_OF_PERICENTER":90.4418,"MEAN_ANOMALY":269.6908,"EPHEMERIS_TYPE":0,"CLASSIFICATION_TYPE":"U","NORAD_CAT_ID":47263,"ELEMENT_SET_NO":999,"REV_AT_EPOCH":22619,"BSTAR":0.00080243011,"MEAN_MOTION_DOT":3.01e-6,"MEAN_MOTION_DDOT":0},{"OBJECT_NAME":"ONEWEB-0118","OBJECT_ID":"2020-100G","EPOCH":"2025-08-28T21:14:48.298272","MEAN_MOTION":13.12441873,"ECCENTRICITY":0.00018532,"INCLINATION":87.8878,"RA_OF_ASC_NODE":48.7314,"ARG_OF_PERICENTER":103.105,"MEAN_ANOMALY":257.0286,"EPHEMERIS_TYPE":0,"CLASSIFICATION_TYPE":"U","NORAD_CAT_ID":47264,"ELEMENT_SET_NO":999,"REV_AT_EPOCH":22638,"BSTAR":-0.0011728751,"MEAN_MOTION_DOT":-4.09e-6,"MEAN_MOTION_DDOT":0},{"OBJECT_NAME":"ONEWEB-0119","OBJECT_ID":"2020-100H","EPOCH":"2025-08-28T21:54:32.072544","MEAN_MOTION":13.12443653,"ECCENTRICITY":0.00016654,"INCLINATION":87.8873,"RA_OF_ASC_NODE":48.7637,"ARG_OF_PERICENTER":91.2633,"MEAN_ANOMALY":268.8686,"EPHEMERIS_TYPE":0,"CLASSIFICATION_TYPE":"U","NORAD_CAT_ID":47265,"ELEMENT_SET_NO":999,"REV_AT_EPOCH":22636,"BSTAR":0.00093083283,"MEAN_MOTION_DOT":3.48e-6,"MEAN_MOTION_DDOT":0},{"OBJECT_NAME":"ONEWEB-0120","OBJECT_ID":"2020-100J","EPOCH":"2025-08-28T22:27:25.524576","MEAN_MOTION":13.12442056,"ECCENTRICITY":0.00016163,"INCLINATION":87.888,"RA_OF_ASC_NODE":48.7591,"ARG_OF_PERICENTER":95.6209,"MEAN_ANOMALY":264.5104,"EPHEMERIS_TYPE":0,"CLASSIFICATION_TYPE":"U","NORAD_CAT_ID":47266,"ELEMENT_SET_NO":999,"REV_AT_EPOCH":22639,"BSTAR":0.000350197,"MEAN_MOTION_DOT":1.39e-6,"MEAN_MOTION_DDOT":0},{"OBJECT_NAME":"ONEWEB-0121","OBJECT_ID":"2020-100K","EPOCH":"2025-08-28T22:10:53.021856","MEAN_MOTION":13.1244152,"ECCENTRICITY":0.00017074,"INCLINATION":87.8871,"RA_OF_ASC_NODE":48.7289,"ARG_OF_PERICENTER":88.5155,"MEAN_ANOMALY":271.6169,"EPHEMERIS_TYPE":0,"CLASSIFICATION_TYPE":"U","NORAD_CAT_ID":47267,"ELEMENT_SET_NO":999,"REV_AT_EPOCH":22630,"BSTAR":0.0010715578,"MEAN_MOTION_DOT":3.98e-6,"MEAN_MOTION_DDOT":0},{"OBJECT_NAME":"ONEWEB-0122","OBJECT_ID":"2020-100L","EPOCH":"2025-08-28T22:03:40.631328","MEAN_MOTION":13.12442177,"ECCENTRICITY":0.0001558,"INCLINATION":87.8872,"RA_OF_ASC_NODE":48.7326,"ARG_OF_PERICENTER":90.8131,"MEAN_ANOMALY":269.3176,"EPHEMERIS_TYPE":0,"CLASSIFICATION_TYPE":"U","NORAD_CAT_ID":47268,"ELEMENT_SET_NO":999,"REV_AT_EPOCH":22621,"BSTAR":0.001168879,"MEAN_MOTION_DOT":4.33e-6,"MEAN_MOTION_DDOT":0}]
