ONEWEB-0082             
1 45452U 20020AE  25240.58248980 -.00000468  00000+0 -13555-2 0  9991
2 45452  87.8785  79.3363 0001720  80.6405 279.4917 13.11417232264320
ONEWEB-0050             
1 45453U 20020AF  25240.60577802  .00002396  00000+0  24009-3 0  9990
2 45453  87.9937 276.9545 0001357  34.2594 325.8722 14.90998337296826
ONEWEB-0034             
1 45454U 20020AG  25240.60368171  .00000287  00000+0  77336-3 0  9996
2 45454  87.8789  79.3523 0001722  85.2644 274.8681 13.11419836264242
ONEWEB-0060             
1 45455U 20020AH  25240.57486022 -.00000437  00000+0 -12676-2 0  9993
2 45455  87.8772  79.3852 0002389  56.6875 303.4482 13.11418858264193
ONEWEB-0086             
1 45456U 20020AJ  25240.93516136  .00000379  00000+0  10342-2 0  9995
2 45456  87.8785  79.2834 0001501  59.2509 300.8767 13.11416410264307
ONEWEB-0088             
1 45457U 20020AK  25240.91310912  .00000426  00000+0  11657-2 0  9991
2 45457  87.8790  79.2339 0001883  86.4720 273.6623 13.11418549264239
ONEWEB-0102             
1 47258U 20100A   25240.91773829  .00000488  00000+0  13212-2 0  9998
2 47258  87.8876  48.7636 0001573  94.9104 265.2204 13.12442610226396
ONEWEB-0109             
1 47259U 20100B   25240.92584842  .00000387  00000+0  10399-2 0  9996
2 47259  87.8868  48.7310 0001604  93.3952 266.7360 13.12441588226220
ONEWEB-0110             
1 47260U 20100C   25240.87554107 -.00000394  00000+0 -11299-2 0  9993
2 47260  87.8874  48.7251 0001644  82.5264 277.6052 13.12441208226388
ONEWEB-0111             
1 47261U 20100D   25240.90637602  .00000248  00000+0  65528-3 0  9991
2 47261  87.8879  48.7357 0001665  92.2215 267.9104 13.12443063226222
ONEWEB-0114             
1 47262U 20100E   25240.93719354  .00000035  00000+0  63179-4 0  9995
2 47262  87.8870  48.7239 0001573 102.9392 257.1912 13.12441213226184
ONEWEB-0117             
1 47263U 20100F   25240.92908789  .00000301  00000+0  80243-3 0  9993
2 47263  87.8879  48.7229 0001724  90.4418 269.6908 13.12441724226192
ONEWEB-0118             
1 47264U 20100G   25240.88528123 -.00000409  00000+0 -11729-2 0  9992
2 47264  87.8878  48.7314 0001853 103.1050 257.0286 13.12441873226380
ONEWEB-0119             
1 47265U 20100H   25240.91287121  .00000348  00000+0  93083-3 0  9991
2 47265  87.8873  48.7637 0001665  91.2633 268.8686 13.12443653226369
ONEWEB-0120             
1 47266U 20100J   25240.93571209  .00000139  00000+0  35020-3 0  9992
2 47266  87.8880  48.7591 0001616  95.6209 264.5104 13.12442056226397
ONEWEB-0121             
1 47267U 20100K   25240.92422479  .00000398  00000+0  10716-2 0  9997
2 47267  87.8871  48.7289 0001707  88.5155 271.6169 13.12441520226300
ONEWEB-0122             
1 47268U 20100L   25240.91922027  .00000433  00000+0  11689-2 0  9991
2 47268  87.8872  48.7326 0001558  90.8131 269.3176 13.12442177226219
